SAOCOM 1A               
1 43641U 18076A   26111.83224572  .00000683  00000+0  92358-4 0  9991
2 43641  97.8897 299.3955 0001557  89.7424 270.3967 14.82152500407757
H-2A R/B                
1 43682U 18084L   26111.87795279  .00016613  00000+0  37461-3 0  9999
2 43682  98.8657 338.5473 0023206 230.9459 128.9719 15.43074589412433
SAOCOM 1B               
1 46265U 20059A   26111.86347618  .00000301  00000+0  44379-4 0  9997
2 46265  97.8888 298.5202 0001542  84.7202 275.4187 14.82141911305145
CSS (TIANHE)            
1 48274U 21035A   26111.88058793  .00024222  00000+0  26437-3 0  9991
2 48274  41.4677 304.9452 0006589 251.1279 108.8847 15.62764680284362
COSMOS 2550             
1 48865U 21056A   26111.88036139 -.00000189  00000+0  89164-7 0  9997
2 48865  67.1424 270.2310 0008414 269.4763  90.5427 15.33831100270085
CZ-2C R/B               
1 52794U 22058K   26111.67146477  .00036832  00000+0  47938-3 0  9992
2 52794  50.1867  96.6404 0039538  24.8163 335.4699 15.57406928216822
CZ-2C R/B               
1 54039U 22132E   26111.75361646  .00042692  00000+0  41922-3 0  9993
2 54039  97.2945 116.5130 0012952 290.7636  69.2236 15.65832107197102
GSLV R/B                
1 54149U 22138AN  26111.83871494  .00001714  00000+0  14584-3 0  9991
2 54149  87.3822 151.9063 0021233   2.1496 357.9823 14.97009830190382
XRISM                   
1 57800U 23137A   26111.42564583  .00004836  00000+0  26946-3 0  9994
2 57800  31.0034   7.1393 0007478 110.4258 249.7184 15.11960637144264
ACS3                    
1 59588U 24077B   26111.09303868  .00002141  00000+0  16834-2 0  9994
2 59588  97.1853  42.6817 0067461 351.9794   8.0287 13.91500543100096
HTV-X1                  
1 66174U 25241A   26111.55778363  .00004408  00000+0  14893-3 0  9996
2 66174  51.6361 226.3273 0007771 338.8494  21.2165 15.32714281 27510
SZ-21 MODULE            
1 66515U 25246C   26111.81188786  .00035741  00000+0  26784-3 0  9999
2 66515  41.4737 297.2219 0004343 305.2560  54.7877 15.71885308 24851
