[{"OBJECT_NAME":"SAOCOM 1A","OBJECT_ID":"2018-076A","EPOCH":"2026-04-21T19:58:26.030208","MEAN_MOTION":14.821525,"ECCENTRICITY":0.0001557,"INCLINATION":97.8897,"RA_OF_ASC_NODE":299.3955,"ARG_OF_PERICENTER":89.7424,"MEAN_ANOMALY":270.3967,"EPHEMERIS_TYPE":0,"CLASSIFICATION_TYPE":"U","NORAD_CAT_ID":43641,"ELEMENT_SET_NO":999,"REV_AT_EPOCH":40775,"BSTAR":9.2358e-5,"MEAN_MOTION_DOT":6.83e-6,"MEAN_MOTION_DDOT":0},{"OBJECT_NAME":"H-2A R/B","OBJECT_ID":"2018-084L","EPOCH":"2026-04-21T21:04:15.121056","MEAN_MOTION":15.43074589,"ECCENTRICITY":0.0023206,"INCLINATION":98.8657,"RA_OF_ASC_NODE":338.5473,"ARG_OF_PERICENTER":230.9459,"MEAN_ANOMALY":128.9719,"EPHEMERIS_TYPE":0,"CLASSIFICATION_TYPE":"U","NORAD_CAT_ID":43682,"ELEMENT_SET_NO":999,"REV_AT_EPOCH":41243,"BSTAR":0.00037461,"MEAN_MOTION_DOT":0.00016613,"MEAN_MOTION_DDOT":0},{"OBJECT_NAME":"SAOCOM 1B","OBJECT_ID":"2020-059A","EPOCH":"2026-04-21T20:43:24.341952","MEAN_MOTION":14.82141911,"ECCENTRICITY":0.0001542,"INCLINATION":97.8888,"RA_OF_ASC_NODE":298.5202,"ARG_OF_PERICENTER":84.7202,"MEAN_ANOMALY":275.4187,"EPHEMERIS_TYPE":0,"CLASSIFICATION_TYPE":"U","NORAD_CAT_ID":46265,"ELEMENT_SET_NO":999,"REV_AT_EPOCH":30514,"BSTAR":4.4379e-5,"MEAN_MOTION_DOT":3.01e-6,"MEAN_MOTION_DDOT":0},{"OBJECT_NAME":"CSS (TIANHE)","OBJECT_ID":"2021-035A","EPOCH":"2026-04-21T21:08:02.797152","MEAN_MOTION":15.6276468,"ECCENTRICITY":0.0006589,"INCLINATION":41.4677,"RA_OF_ASC_NODE":304.9452,"ARG_OF_PERICENTER":251.1279,"MEAN_ANOMALY":108.8847,"EPHEMERIS_TYPE":0,"CLASSIFICATION_TYPE":"U","NORAD_CAT_ID":48274,"ELEMENT_SET_NO":999,"REV_AT_EPOCH":28436,"BSTAR":0.00026437,"MEAN_MOTION_DOT":0.00024222,"MEAN_MOTION_DDOT":0},{"OBJECT_NAME":"COSMOS 2550","OBJECT_ID":"2021-056A","EPOCH":"2026-04-21T21:07:43.224096","MEAN_MOTION":15.338311,"ECCENTRICITY":0.0008414,"INCLINATION":67.1424,"RA_OF_ASC_NODE":270.231,"ARG_OF_PERICENTER":269.4763,"MEAN_ANOMALY":90.5427,"EPHEMERIS_TYPE":0,"CLASSIFICATION_TYPE":"U","NORAD_CAT_ID":48865,"ELEMENT_SET_NO":999,"REV_AT_EPOCH":27008,"BSTAR":8.9164e-8,"MEAN_MOTION_DOT":-1.89e-6,"MEAN_MOTION_DDOT":0},{"OBJECT_NAME":"CZ-2C R/B","OBJECT_ID":"2022-058K","EPOCH":"2026-04-21T16:06:54.556128","MEAN_MOTION":15.57406928,"ECCENTRICITY":0.0039538,"INCLINATION":50.1867,"RA_OF_ASC_NODE":96.6404,"ARG_OF_PERICENTER":24.8163,"MEAN_ANOMALY":335.4699,"EPHEMERIS_TYPE":0,"CLASSIFICATION_TYPE":"U","NORAD_CAT_ID":52794,"ELEMENT_SET_NO":999,"REV_AT_EPOCH":21682,"BSTAR":0.00047938,"MEAN_MOTION_DOT":0.00036832,"MEAN_MOTION_DDOT":0},{"OBJECT_NAME":"CZ-2C R/B","OBJECT_ID":"2022-132E","EPOCH":"2026-04-21T18:05:12.462144","MEAN_MOTION":15.65832107,"ECCENTRICITY":0.0012952,"INCLINATION":97.2945,"RA_OF_ASC_NODE":116.513,"ARG_OF_PERICENTER":290.7636,"MEAN_ANOMALY":69.2236,"EPHEMERIS_TYPE":0,"CLASSIFICATION_TYPE":"U","NORAD_CAT_ID":54039,"ELEMENT_SET_NO":999,"REV_AT_EPOCH":19710,"BSTAR":0.00041922,"MEAN_MOTION_DOT":0.00042692,"MEAN_MOTION_DDOT":0},{"OBJECT_NAME":"GSLV R/B","OBJECT_ID":"2022-138AN","EPOCH":"2026-04-21T20:07:44.970816","MEAN_MOTION":14.9700983,"ECCENTRICITY":0.0021233,"INCLINATION":87.3822,"RA_OF_ASC_NODE":151.9063,"ARG_OF_PERICENTER":2.1496,"MEAN_ANOMALY":357.9823,"EPHEMERIS_TYPE":0,"CLASSIFICATION_TYPE":"U","NORAD_CAT_ID":54149,"ELEMENT_SET_NO":999,"REV_AT_EPOCH":19038,"BSTAR":0.00014584,"MEAN_MOTION_DOT":1.714e-5,"MEAN_MOTION_DDOT":0},{"OBJECT_NAME":"XRISM","OBJECT_ID":"2023-137A","EPOCH":"2026-04-21T10:12:55.799712","MEAN_MOTION":15.11960637,"ECCENTRICITY":0.00074784,"INCLINATION":31.0034,"RA_OF_ASC_NODE":7.1393,"ARG_OF_PERICENTER":110.4258,"MEAN_ANOMALY":249.7184,"EPHEMERIS_TYPE":0,"CLASSIFICATION_TYPE":"U","NORAD_CAT_ID":57800,"ELEMENT_SET_NO":999,"REV_AT_EPOCH":14426,"BSTAR":0.00026945662,"MEAN_MOTION_DOT":4.836e-5,"MEAN_MOTION_DDOT":0},{"OBJECT_NAME":"ACS3","OBJECT_ID":"2024-077B","EPOCH":"2026-04-21T02:13:58.541952","MEAN_MOTION":13.91500543,"ECCENTRICITY":0.00674612,"INCLINATION":97.1853,"RA_OF_ASC_NODE":42.6817,"ARG_OF_PERICENTER":351.9794,"MEAN_ANOMALY":8.0287,"EPHEMERIS_TYPE":0,"CLASSIFICATION_TYPE":"U","NORAD_CAT_ID":59588,"ELEMENT_SET_NO":999,"REV_AT_EPOCH":10009,"BSTAR":0.0016834484,"MEAN_MOTION_DOT":2.141e-5,"MEAN_MOTION_DDOT":0},{"OBJECT_NAME":"HTV-X1","OBJECT_ID":"2025-241A","EPOCH":"2026-04-21T13:23:12.505632","MEAN_MOTION":15.32714281,"ECCENTRICITY":0.0007771,"INCLINATION":51.6361,"RA_OF_ASC_NODE":226.3273,"ARG_OF_PERICENTER":338.8494,"MEAN_ANOMALY":21.2165,"EPHEMERIS_TYPE":0,"CLASSIFICATION_TYPE":"U","NORAD_CAT_ID":66174,"ELEMENT_SET_NO":999,"REV_AT_EPOCH":2751,"BSTAR":0.00014893,"MEAN_MOTION_DOT":4.408e-5,"MEAN_MOTION_DDOT":0},{"OBJECT_NAME":"SZ-21 MODULE","OBJECT_ID":"2025-246C","EPOCH":"2026-04-21T19:29:07.111104","MEAN_MOTION":15.71885308,"ECCENTRICITY":0.0004343,"INCLINATION":41.4737,"RA_OF_ASC_NODE":297.2219,"ARG_OF_PERICENTER":305.256,"MEAN_ANOMALY":54.7877,"EPHEMERIS_TYPE":0,"CLASSIFICATION_TYPE":"U","NORAD_CAT_ID":66515,"ELEMENT_SET_NO":999,"REV_AT_EPOCH":2485,"BSTAR":0.00026784,"MEAN_MOTION_DOT":0.00035741,"MEAN_MOTION_DDOT":0}]
